NORAD_CAT_ID,OBJECT_NAME,OBJECT_TYPE,EPOCH,MEAN_MOTION,ECCENTRICITY,INCLINATION,RA_OF_ASC_NODE,ARG_OF_PERICENTER,MEAN_ANOMALY,BSTAR,MEAN_MOTION_DOT,MEAN_MOTION_DDOT,TLE_LINE0,TLE_LINE1,TLE_LINE2,SEMIMAJOR_AXIS,PERIOD,APOGEE,PERIGEE,DECAYED
53869.0,STARLINK-4810,PAYLOAD,2024-05-26 20:48:12,15.08845126,0.0001134,53.2178,319.9347,92.8313,267.2809,0.0001771,2.532e-05,0.0,0 STARLINK-4810,1 53869U 22114BD  24147.86680803  .00002532  00000-0  17710-3 0  9999,2 53869  53.2178 319.9347 0001134  92.8313 267.2809 15.08845126 94311,6917.865,95.437,540.514,538.945,0.0
53869.0,STARLINK-4810,PAYLOAD,2024-05-27 11:06:40,15.08842443,0.0001137,53.2176,317.2612,103.5461,256.5658,0.00015912,2.246e-05,0.0,0 STARLINK-4810,1 53869U 22114BD  24148.46296960  .00002246  00000-0  15912-3 0  9997,2 53869  53.2176 317.2612 0001137 103.5461 256.5658 15.08842443 94943,6917.873,95.437,540.524,538.951,0.0
53869.0,STARLINK-4810,PAYLOAD,2024-05-27 17:28:13,15.08842659,0.000113,53.2176,316.0714,104.3008,255.8109,0.00015153,2.125e-05,0.0,0 STARLINK-4810,1 53869U 22114BD  24148.72792919  .00002125  00000-0  15153-3 0  9994,2 53869  53.2176 316.0714 0001130 104.3008 255.8109 15.08842659 94449,6917.872,95.437,540.519,538.956,0.0
53869.0,STARLINK-4810,PAYLOAD,2024-05-28 04:35:54,15.08846657,0.0001176,53.2176,313.9902,92.3782,267.7345,0.00013806,1.91e-05,0.0,0 STARLINK-4810,1 53869U 22114BD  24149.19160661  .00001910  00000-0  13806-3 0  9993,2 53869  53.2176 313.9902 0001176  92.3782 267.7345 15.08846657 95053,6917.86,95.437,540.539,538.912,0.0
53869.0,STARLINK-4810,PAYLOAD,2024-05-28 20:29:45,15.08848302,0.0001097,53.2178,311.0167,110.1829,249.9282,2.9662e-05,1.84e-06,0.0,0 STARLINK-4810,1 53869U 22114BD  24149.85400329  .00000184  00000-0  29662-4 0  9994,2 53869  53.2178 311.0167 0001097 110.1829 249.9282 15.08848302 94612,6917.855,95.437,540.479,538.961,0.0
53869.0,STARLINK-4810,PAYLOAD,2024-05-29 13:59:00,15.08839791,0.0001107,53.2181,307.7445,109.2621,250.8491,-1.5103e-05,-5.28e-06,0.0,0 STARLINK-4810,1 53869U 22114BD  24150.58264885 -.00000528  00000-0 -15103-4 0  9990,2 53869  53.2181 307.7445 0001107 109.2621 250.8491 15.08839791 95265,6917.881,95.438,540.512,538.98,0.0
53869.0,STARLINK-4810,PAYLOAD,2024-05-29 20:20:33,15.08841725,0.0001132,53.2184,306.5553,105.4901,254.6216,-6.5232e-06,-3.92e-06,0.0,0 STARLINK-4810,1 53869U 22114BD  24150.84760721 -.00000392  00000-0 -65232-5 0  9997,2 53869  53.2184 306.5553 0001132 105.4901 254.6216 15.08841725 94763,6917.875,95.437,540.523,538.957,0.0
53869.0,STARLINK-4810,PAYLOAD,2024-05-30 13:49:47,15.08838954,0.0001143,53.2187,303.2836,102.2854,257.8266,5.7597e-05,6.29e-06,0.0,0 STARLINK-4810,1 53869U 22114BD  24151.57624726  .00000629  00000-0  57597-4 0  9997,2 53869  53.2187 303.2836 0001143 102.2854 257.8266 15.08838954 95411,6917.884,95.438,540.539,538.958,0.0
53869.0,STARLINK-4810,PAYLOAD,2024-05-30 17:00:33,15.08840346,0.0001126,53.2182,302.6891,94.0386,266.0735,6.8123e-05,7.97e-06,0.0,0 STARLINK-4810,1 53869U 22114BD  24151.70872645  .00000797  00000-0  68123-4 0  9990,2 53869  53.2182 302.6891 0001126  94.0386 266.0735 15.08840346 95432,6917.879,95.438,540.523,538.965,0.0
53869.0,STARLINK-4810,PAYLOAD,2024-05-31 13:40:34,15.08837828,0.0001134,53.2179,298.8245,107.6666,252.445,5.863e-05,6.45e-06,0.0,0 STARLINK-4810,1 53869U 22114BD  24152.56984856  .00000645  00000-0  58630-4 0  9997,2 53869  53.2179 298.8245 0001134 107.6666 252.4450 15.08837828 95027,6917.887,95.438,540.537,538.968,0.0
53869.0,STARLINK-4810,PAYLOAD,2024-05-31 16:51:21,15.08838637,0.0001156,53.2181,298.2326,99.1517,260.9606,5.3885e-05,5.7e-06,0.0,0 STARLINK-4810,1 53869U 22114BD  24152.70232862  .00000570  00000-0  53885-4 0  9990,2 53869  53.2181 298.2326 0001156  99.1517 260.9606 15.08838637 95585,6917.885,95.438,540.549,538.95,0.0
53869.0,STARLINK-4810,PAYLOAD,2024-06-01 02:23:39,15.08849166,0.0001213,53.2192,296.4482,97.1543,262.9587,0.00013048,1.79e-05,0.0,0 STARLINK-4810,1 53869U 22114BD  24153.09975908  .00001790  00000-0  13048-3 0  9999,2 53869  53.2192 296.4482 0001213  97.1543 262.9587 15.08849166 95108,6917.852,95.437,540.557,538.878,0.0
53869.0,STARLINK-4810,PAYLOAD,2024-06-01 13:31:22,15.08831333,0.0001281,53.2192,294.3658,94.3151,265.7988,-1.7876e-05,-5.72e-06,0.0,0 STARLINK-4810,1 53869U 22114BD  24153.56345697 -.00000572  00000-0 -17876-4 0  9990,2 53869  53.2192 294.3658 0001281  94.3151 265.7988 15.08831333 95179,6917.907,95.438,540.658,538.886,0.0
53869.0,STARLINK-4810,PAYLOAD,2024-06-02 02:14:26,15.08847173,0.0001298,53.2188,291.9879,87.7104,272.4037,9.3791e-05,1.205e-05,0.0,0 STARLINK-4810,1 53869U 22114BD  24154.09336565  .00001205  00000-0  93791-4 0  9995,2 53869  53.2188 291.9879 0001298  87.7104 272.4037 15.08847173 95252,6917.858,95.437,540.621,538.826,0.0
53869.0,STARLINK-4810,PAYLOAD,2024-06-02 18:08:19,15.08833736,0.0001255,53.2191,289.0124,87.3092,272.8044,4.9988e-05,5.08e-06,0.0,0 STARLINK-4810,1 53869U 22114BD  24154.75577695  .00000508  00000-0  49988-4 0  9993,2 53869  53.2191 289.0124 0001255  87.3092 272.8044 15.08833736 95355,6917.9,95.438,540.633,538.896,0.0
53869.0,STARLINK-4810,PAYLOAD,2024-06-03 14:48:19,15.08836132,0.0001222,53.2183,285.1481,77.8283,282.2846,0.00021574,3.147e-05,0.0,0 STARLINK-4810,1 53869U 22114BD  24155.61689345  .00003147  00000-0  21574-3 0  9997,2 53869  53.2183 285.1481 0001222  77.8283 282.2846 15.08836132 96022,6917.892,95.438,540.603,538.912,0.0
53869.0,STARLINK-4810,PAYLOAD,2024-06-04 01:56:01,15.08846858,0.0001397,53.2165,283.0641,86.615,273.5002,0.00011267,1.506e-05,0.0,0 STARLINK-4810,1 53869U 22114BD  24156.08056835  .00001506  00000-0  11267-3 0  9996,2 53869  53.2165 283.0641 0001397  86.6150 273.5002 15.08846858 95551,6917.859,95.437,540.691,538.758,0.0
53869.0,STARLINK-4810,PAYLOAD,2024-06-04 08:17:35,15.08807181,0.0002212,53.2122,281.8732,95.053,265.0714,0.00059143,9.129e-05,0.0,0 STARLINK-4810,1 53869U 22114BD  24156.34554467  .00009129  00000-0  59143-3 0  9993,2 53869  53.2122 281.8732 0002212  95.0530 265.0714 15.08807181 95590,6917.981,95.44,541.376,538.315,0.0
53869.0,STARLINK-4810,PAYLOAD,2024-06-04 14:39:08,15.0880748,0.0002156,53.2122,280.6835,96.699,263.4247,0.00060472,9.341e-05,0.0,0 STARLINK-4810,1 53869U 22114BD  24156.61050929  .00009341  00000-0  60472-3 0  9990,2 53869  53.2122 280.6835 0002156  96.6990 263.4247 15.08807480 96175,6917.98,95.44,541.336,538.353,0.0
53869.0,STARLINK-4810,PAYLOAD,2024-06-05 01:46:48,15.088444,0.0001941,53.2129,278.603,89.8222,270.2993,7.6827e-05,9.35e-06,0.0,0 STARLINK-4810,1 53869U 22114BD  24157.07417116  .00000935  00000-0  76827-4 0  9998,2 53869  53.2129 278.6030 0001941  89.8222 270.2993 15.08844400 95704,6917.867,95.437,541.075,538.389,0.0
53869.0,STARLINK-4810,PAYLOAD,2024-06-05 11:19:08,15.08827658,0.0001782,53.2142,276.8177,107.846,252.2726,-7.4447e-05,-1.472e-05,0.0,0 STARLINK-4810,1 53869U 22114BD  24157.47162602 -.00001472  00000-0 -74447-4 0  9994,2 53869  53.2142 276.8177 0001782 107.8460 252.2726 15.08827658 95765,6917.918,95.438,541.016,538.55,0.0
53869.0,STARLINK-4810,PAYLOAD,2024-06-05 14:29:54,15.08828415,0.0001799,53.2161,276.2237,109.222,250.8967,-2.8814e-05,-7.46e-06,0.0,0 STARLINK-4810,1 53869U 22114BD  24157.60410561 -.00000746  00000-0 -28814-4 0  9999,2 53869  53.2161 276.2237 0001799 109.2220 250.8967 15.08828415 96321,6917.916,95.438,541.025,538.536,0.0
53869.0,STARLINK-4810,PAYLOAD,2024-06-06 14:20:40,15.08847212,0.0001452,53.2149,271.7643,89.8526,270.2633,0.00015963,2.254e-05,0.0,0 STARLINK-4810,1 53869U 22114BD  24158.59769342  .00002254  00000-0  15963-3 0  9996,2 53869  53.2149 271.7643 0001452  89.8526 270.2633 15.08847212 95934,6917.858,95.437,540.728,538.719,0.0
53869.0,STARLINK-4810,PAYLOAD,2024-06-07 07:49:56,15.08827849,0.0001379,53.2145,268.4931,94.8015,265.3134,0.00018765,2.699e-05,0.0,0 STARLINK-4810,1 53869U 22114BD  24159.32634559  .00002699  00000-0  18765-3 0  9995,2 53869  53.2145 268.4931 0001379  94.8015 265.3134 15.08827849 96048,6917.918,95.438,540.737,538.829,0.0
53869.0,STARLINK-4810,PAYLOAD,2024-06-08 14:02:14,15.08855385,0.0001159,53.2153,262.844,79.4048,280.7075,0.00015958,2.254e-05,0.0,0 STARLINK-4810,1 53869U 22114BD  24160.58489383  .00002254  00000-0  15958-3 0  9996,2 53869  53.2153 262.8440 0001159  79.4048 280.7075 15.08855385 96772,6917.833,95.437,540.5,538.897,0.0
53869.0,STARLINK-4810,PAYLOAD,2024-06-09 12:17:39,15.08821082,0.0001319,53.2153,258.6816,85.7333,274.381,-0.00034034,-5.697e-05,0.0,0 STARLINK-4810,1 53869U 22114BD  24161.51226763 -.00005697  00000-0 -34034-3 0  9993,2 53869  53.2153 258.6816 0001319  85.7333 274.3810 15.08821082 96376,6917.938,95.439,540.716,538.891,0.0
53869.0,STARLINK-4810,PAYLOAD,2024-06-09 15:28:26,15.08825326,0.0001725,53.2179,258.0888,98.5679,261.5509,-0.00019682,-3.418e-05,0.0,0 STARLINK-4810,1 53869U 22114BD  24161.64474847 -.00003418  00000-0 -19682-3 0  9996,2 53869  53.2179 258.0888 0001725  98.5679 261.5509 15.08825326 96933,6917.925,95.438,540.984,538.597,0.0
53869.0,STARLINK-4810,PAYLOAD,2024-06-09 23:25:21,15.08842906,0.000149,53.2173,256.6005,88.5067,271.6096,0.00015322,2.152e-05,0.0,0 STARLINK-4810,1 53869U 22114BD  24161.97594274  .00002152  00000-0  15322-3 0  9998,2 53869  53.2173 256.6005 0001490  88.5067 271.6096 15.08842906 96443,6917.872,95.437,540.767,538.706,0.0
53869.0,STARLINK-4810,PAYLOAD,2024-06-10 12:08:26,15.08835211,0.0001359,53.2151,254.2221,86.7498,273.365,0.00041735,6.36e-05,0.0,0 STARLINK-4810,1 53869U 22114BD  24162.50586774  .00006360  00000-0  41735-3 0  9996,2 53869  53.2151 254.2221 0001359  86.7498 273.3650 15.08835211 96520,6917.895,95.438,540.7,538.82,0.0
53869.0,STARLINK-4810,PAYLOAD,2024-06-10 13:43:50,15.08837351,0.0001378,53.2153,253.9248,87.9246,272.1904,0.0004979,7.644e-05,0.0,0 STARLINK-4810,1 53869U 22114BD  24162.57210774  .00007644  00000-0  49790-3 0  9992,2 53869  53.2153 253.9248 0001378  87.9246 272.1904 15.08837351 97079,6917.888,95.438,540.707,538.8,0.0
